ONEWEB-0300             
1 49089U 21075Q   25196.89805095  .00000243  00000+0  63865-3 0  9991
2 49089  87.8857  57.5198 0001877  93.0084 267.1259 13.12445515191090
ONEWEB-0301             
1 49090U 21075R   25196.88182986 -.00000463  00000+0 -13220-2 0  9994
2 49090  87.8853  57.5292 0001972  95.5811 264.5542 13.12443464190450
ONEWEB-0302             
1 49091U 21075S   25196.86885418 -.00000348  00000+0 -10040-2 0  9992
2 49091  87.8854  57.5333 0001800  70.3796 289.7527 13.12443294190432
ONEWEB-0304             
1 49092U 21075T   25196.69516799 -.00000010  00000+0 -59844-4 0  9990
2 49092  87.9051  72.8464 0001682  79.1020 281.0300 13.17647702189261
ONEWEB-0305             
1 49093U 21075U   25196.91622528  .00000054  00000+0  10540-3 0  9999
2 49093  87.9049  72.7790 0001380  78.9070 281.2217 13.17649970189322
ONEWEB-0308             
1 49094U 21075V   25196.86236708 -.00000260  00000+0 -75904-3 0  9991
2 49094  87.8853  57.5292 0001850  83.8063 276.3276 13.12440822190447
ONEWEB-0309             
1 49095U 21075W   25197.14741112  .00000042  00000+0  74786-4 0  9998
2 49095  87.9049  72.7498 0001918  66.6754 293.4579 13.17649956190310
ONEWEB-0310             
1 49096U 21075X   25196.87696126 -.00000496  00000+0 -14152-2 0  9996
2 49096  87.8863  57.5706 0001780  78.8591 281.2738 13.12442981191078
